{"fetched_at":"2026-04-03T08:55:45Z","count":9961,"tles":[{"name":"RASSVET-3 2","line1":"1 68361U 26061B   26090.65764540  .00066037  36253-6  23031-3 0  9992","line2":"2 68361  82.2971  99.7121 0027321  44.8164 315.5307 15.88526069  1269","category":"Other"}]}